#aV2019  4 28  0  0  0.00000000     288 DD+AD WGS84 FIT  NGA
## 2051      0.00000000   300.00000000 58601 0.0000000000000
+   31     1  2  3  5  6  7  8  9 10 11 12 13 14 15 16 17 18
+         19 20 21 22 23 24 25 26 27 28 29 30 31 32  0  0  0
+          0  0  0  0  0  0  0  0  0  0  0  0  0  0  0  0  0
+          0  0  0  0  0  0  0  0  0  0  0  0  0  0  0  0  0
+          0  0  0  0  0  0  0  0  0  0  0  0  0  0  0  0  0
++         2  2  2  2  2  2  2  2  2  2  2  2  2  2  2  2  2
++         2  2  2  2  2  2  2  2  2  2  2  2  2  2  0  0  0
++         0  0  0  0  0  0  0  0  0  0  0  0  0  0  0  0  0
++         0  0  0  0  0  0  0  0  0  0  0  0  0  0  0  0  0
++         0  0  0  0  0  0  0  0  0  0  0  0  0  0  0  0  0
%c cc cc ccc ccc cccc cccc cccc cccc ccccc ccccc ccccc ccccc
%c cc cc ccc ccc cccc cccc cccc cccc ccccc ccccc ccccc ccccc
%f  0.0000000  0.000000000  0.00000000000  0.000000000000000
%f  0.0000000  0.000000000  0.00000000000  0.000000000000000
%i    0    0    0    0      0      0      0      0         0
%i    0    0    0    0      0      0      0      0         0
/*      NGA, ST. LOUIS,MO.                                  
/*   EPHEMERIS COMPUTED FROM 2 DAYS OF DATA                 
/*   EPOCHA v3 SMOOTHER                                     
/*   G1762 IERS2010 SATAF SATAPC                            
*  2019  4 28 13 30  0.00000000
P  1 -19300.342121 -13861.520878 -12372.667565     -4.107567                    
V  1  15195.553390   2345.107034 -26403.384193     -0.085186                    
P  2  -2993.731114  15350.361125  22075.864848   -200.137860                    
V  2 -26105.785805  -5205.768859    -76.113030     -0.093055                    
P  3 -12522.335414 -21576.020329   9206.043566    188.322771                    
V  3   -711.498719 -11946.370165 -28765.702370     -0.000837                    
P  5    967.062457  24913.891982   8733.678177      1.051780                    
V  5  -6237.278984  -9957.697250  28909.679246     -0.000813                    
P  6 -16648.696162   8830.361027  18774.416485    219.409392                    
V  6 -22632.498984  -7122.818992 -16726.038857     -0.096982                    
P  7 -25846.954421  -7150.157419    -59.130535    -13.687340                    
V  7    326.650987  -2581.968384  31337.423700     -0.074632                    
P  8  -1794.994886 -17591.036228 -19718.179142   -141.587270                    
V  8  18316.830969 -17276.821009  13921.110889     -0.014033                    
P  9 -19389.452937   1645.885668  18042.034532    420.996905                    
V  9  14735.787009 -17756.184397  17404.384803     -0.067280                    
P 10  13238.994237  -8166.778017 -21442.952557     61.060483                    
V 10   7819.678909  26264.031439  -5352.267758     -0.101671                    
P 11 -14991.512656 -12034.512700 -18766.359001   -617.641583                    
V 11  22248.440985  -6311.910804 -14379.587770      0.075736                    
P 12  10362.235613  22990.456267   8403.977127    247.269749                    
V 12    330.539461  11049.385905 -29701.367341     -0.033862                    
P 13  -7748.250461  19953.541638 -15808.348579    -65.942848                    
V 13 -16708.967238  10900.744333  22145.696865      0.015775                    
P 14  18464.938306 -18751.382468   3058.425335    -82.693594                    
V 14   4576.054299    -81.843478 -31563.024560      0.015291                    
P 15   5400.702441  16910.397229 -19909.804744   -315.964630                    
V 15 -17022.962065  18303.196398  11466.278233      0.020425                    
P 16    546.167180 -25153.098060   7587.977038    -36.016068                    
V 16   4118.446308   9396.226928  30537.650909     -0.028463                    
P 17 -21421.958738  14433.545566  -5574.583485     46.168377                    
V 17   4194.816022  -6693.292920 -31275.682494      0.060639                    
P 18 -10656.543590 -15955.728151 -18910.764430     48.366418                    
V 18  22765.490422   3423.249304 -16003.415094      0.034977                    
P 19 -19774.173182  17702.095915   1575.570370   -325.378311                    
V 19  -3141.858948   -101.088198 -32083.309117      0.044927                    
P 20  17120.134173   1786.460176 -20363.384210    524.323966                    
V 20   8718.144027  24211.262326   9352.908090      0.002818                    
P 21  25933.729818   2257.169172  -4051.851407   -203.382435                    
V 21   5373.390707   4543.697286  31005.637174      0.075391                    
P 22 -10172.651474 -24519.400115   1955.620176   -691.714749                    
V 22   2846.064033  -3346.122509 -30805.933654     -0.066581                    
P 23 -12339.585591  -9851.209252  21699.906460   -188.409483                    
V 23  18536.842997 -19397.871284   1355.018618      0.015249                    
P 24  16630.237218  14684.765952 -14994.867415    -65.351425                    
V 24 -18763.885258  -1615.725306 -22300.077855     -0.004708                    
P 25  15642.249111  12708.838039  17220.260435   -750.630485                    
V 25   4360.175341  21771.542670 -19536.552390     -0.041286                    
P 26   6407.056893 -19665.190399  16541.748020    187.671932                    
V 26   8102.553092  19640.577868  20360.561359      0.097808                    
P 27   8837.463836 -21349.925567 -12921.948532   -118.960277                    
V 27  12887.189138 -10221.612099  26200.774456     -0.090138                    
P 28 -13326.821993   6640.158650 -21400.714751    767.687039                    
V 28  -5370.256437 -28050.490088  -5123.517358      0.002111                    
P 29  16361.984060   3692.590412  20563.829926    214.644142                    
V 29 -19034.154036  17891.551097  11910.746636     -0.091680                    
P 30 -24126.375500   1105.250358 -11240.650696    -94.736367                    
V 30 -12812.537627  -6889.205103  26589.208848     -0.069724                    
P 31  15962.858244  -9331.036156  19224.819713     41.919693                    
V 31  22977.885186   7893.357296 -14811.229247     -0.026659                    
P 32  20148.921886 -16753.880946  -3865.787954   -111.831752                    
V 32  -1341.488775   5672.660552 -31240.045374      0.173308                    
EOF
